[{"OBJECT_NAME":"STARLINK-5966","OBJECT_ID":"2023-083AV","EPOCH":"2026-03-09T22:00:01.999584","MEAN_MOTION":15.0938576,"ECCENTRICITY":0.00014041,"INCLINATION":43,"RA_OF_ASC_NODE":67.3895,"ARG_OF_PERICENTER":278.8918,"MEAN_ANOMALY":174.089,"EPHEMERIS_TYPE":0,"CLASSIFICATION_TYPE":"U","NORAD_CAT_ID":56919,"ELEMENT_SET_NO":999,"REV_AT_EPOCH":557,"BSTAR":0.0038722234,"MEAN_MOTION_DOT":0.00063281,"MEAN_MOTION_DDOT":0},{"OBJECT_NAME":"NEONSAT-1A","OBJECT_ID":"2026-019A","EPOCH":"2026-03-09T21:53:31.879392","MEAN_MOTION":15.0780294,"ECCENTRICITY":0.00137261,"INCLINATION":97.411,"RA_OF_ASC_NODE":192.4819,"ARG_OF_PERICENTER":167.4713,"MEAN_ANOMALY":192.686,"EPHEMERIS_TYPE":0,"CLASSIFICATION_TYPE":"U","NORAD_CAT_ID":67614,"ELEMENT_SET_NO":999,"REV_AT_EPOCH":585,"BSTAR":0.00027109929,"MEAN_MOTION_DOT":4.096e-5,"MEAN_MOTION_DDOT":0}]
